NORAD_CAT_ID,OBJECT_NAME,OBJECT_TYPE,EPOCH,MEAN_MOTION,ECCENTRICITY,INCLINATION,RA_OF_ASC_NODE,ARG_OF_PERICENTER,MEAN_ANOMALY,BSTAR,MEAN_MOTION_DOT,MEAN_MOTION_DDOT,TLE_LINE0,TLE_LINE1,TLE_LINE2,SEMIMAJOR_AXIS,PERIOD,APOGEE,PERIGEE,DECAYED
55658.0,STARLINK-5307,PAYLOAD,2024-01-22 06:22:36,14.9833415,0.0002606,70.0014,344.5065,255.2085,104.8785,4.5742e-05,4.53e-06,0.0,0 STARLINK-5307,1 55658U 23021AG  24022.26570101  .00000453  00000-0  45742-4 0  9997,2 55658  70.0014 344.5065 0002606 255.2085 104.8785 14.98334150 52346,6950.18,96.107,573.856,570.234,0.0
55658.0,STARLINK-5307,PAYLOAD,2024-01-22 07:58:44,14.98335476,0.0002616,70.0014,344.3378,254.8777,105.2093,6.0533e-05,6.29e-06,0.0,0 STARLINK-5307,1 55658U 23021AG  24022.33245956  .00000629  00000-0  60533-4 0  9992,2 55658  70.0014 344.3378 0002616 254.8777 105.2093 14.98335476 52052,6950.176,96.107,573.859,570.223,0.0
55658.0,STARLINK-5307,PAYLOAD,2024-01-22 22:23:57,14.98328005,0.000258,70.0016,342.8223,252.114,107.9738,3.8178e-05,3.63e-06,0.0,0 STARLINK-5307,1 55658U 23021AG  24022.93330371  .00000363  00000-0  38178-4 0  9999,2 55658  70.0016 342.8223 0002580 252.1140 107.9738 14.98328005 52449,6950.199,96.107,573.857,570.271,0.0
55658.0,STARLINK-5307,PAYLOAD,2024-01-23 01:36:13,14.98327748,0.0002593,70.0016,342.4859,251.4877,108.6,3.1673e-05,2.85e-06,0.0,0 STARLINK-5307,1 55658U 23021AG  24023.06682414  .00000285  00000-0  31673-4 0  9998,2 55658  70.0016 342.4859 0002593 251.4877 108.6000 14.98327748 52165,6950.2,96.107,573.867,570.263,0.0
55658.0,STARLINK-5307,PAYLOAD,2024-01-23 06:24:37,14.98330634,0.000256,70.0017,341.9812,249.8101,110.2783,6.4676e-05,6.79e-06,0.0,0 STARLINK-5307,1 55658U 23021AG  24023.26710179  .00000679  00000-0  64676-4 0  9996,2 55658  70.0017 341.9812 0002560 249.8101 110.2783 14.98330634 52495,6950.191,96.107,573.835,570.277,0.0
55658.0,STARLINK-5307,PAYLOAD,2024-01-23 22:25:58,14.98331486,0.0002563,70.0025,340.2992,236.2193,123.8723,2.1055e-05,1.58e-06,0.0,0 STARLINK-5307,1 55658U 23021AG  24023.93470105  .00000158  00000-0  21055-4 0  9998,2 55658  70.0025 340.2992 0002563 236.2193 123.8723 14.98331486 52590,6950.188,96.107,573.835,570.272,0.0
55658.0,STARLINK-5307,PAYLOAD,2024-01-24 03:14:22,14.98331371,0.0002568,70.0027,339.7943,235.7361,124.3555,1.9474e-05,1.39e-06,0.0,0 STARLINK-5307,1 55658U 23021AG  24024.13498092  .00000139  00000-0  19474-4 0  9997,2 55658  70.0027 339.7943 0002568 235.7361 124.3555 14.98331371 52320,6950.189,96.107,573.838,570.269,0.0
55658.0,STARLINK-5307,PAYLOAD,2024-01-24 06:26:38,14.98330838,0.0002555,70.0027,339.4578,238.0352,122.0559,1.2214e-05,5.3e-07,0.0,0 STARLINK-5307,1 55658U 23021AG  24024.26850198  .00000053  00000-0  12214-4 0  9990,2 55658  70.0027 339.4578 0002555 238.0352 122.0559 14.98330838 52644,6950.19,96.107,573.831,570.28,0.0
55658.0,STARLINK-5307,PAYLOAD,2024-01-24 22:27:59,14.98332112,0.0002528,70.0026,337.7756,243.942,116.1479,3.3635e-05,3.08e-06,0.0,0 STARLINK-5307,1 55658U 23021AG  24024.93610013  .00000308  00000-0  33635-4 0  9997,2 55658  70.0026 337.7756 0002528 243.9420 116.1479 14.98332112 52746,6950.186,96.107,573.808,570.294,0.0
55658.0,STARLINK-5307,PAYLOAD,2024-01-25 03:16:23,14.98330624,0.0002559,70.0025,337.2707,245.1527,114.9367,1.1425e-05,4.3e-07,0.0,0 STARLINK-5307,1 55658U 23021AG  24025.13638157  .00000043  00000-0  11425-4 0  9998,2 55658  70.0025 337.2707 0002559 245.1527 114.9367 14.98330624 52470,6950.191,96.107,573.835,570.277,0.0
55658.0,STARLINK-5307,PAYLOAD,2024-01-25 06:28:39,14.98328322,0.0002598,70.0022,336.9337,250.1109,109.977,-1.8811e-05,-3.17e-06,0.0,0 STARLINK-5307,1 55658U 23021AG  24025.26990441 -.00000317  00000-0 -18811-4 0  9991,2 55658  70.0022 336.9337 0002598 250.1109 109.9770 14.98328322 52796,6950.198,96.107,573.869,570.257,0.0
55658.0,STARLINK-5307,PAYLOAD,2024-01-25 22:30:00,14.98329864,0.0002694,70.002,335.2501,253.9061,106.1802,-9.5275e-07,-1.04e-06,0.0,0 STARLINK-5307,1 55658U 23021AG  24025.93750326 -.00000104  00000-0 -95275-6 0  9996,2 55658  70.0020 335.2501 0002694 253.9061 106.1802 14.98329864 52892,6950.193,96.107,573.931,570.186,0.0
55658.0,STARLINK-5307,PAYLOAD,2024-01-26 03:18:24,14.98330854,0.0002671,70.002,334.7451,252.6682,107.4185,1.3083e-05,6.3e-07,0.0,0 STARLINK-5307,1 55658U 23021AG  24026.13778222  .00000063  00000-0  13083-4 0  9991,2 55658  70.0020 334.7451 0002671 252.6682 107.4185 14.98330854 52620,6950.19,96.107,573.912,570.199,0.0
55658.0,STARLINK-5307,PAYLOAD,2024-01-26 06:30:40,14.9833255,0.0002654,70.0021,334.4088,251.9101,108.1769,3.3993e-05,3.13e-06,0.0,0 STARLINK-5307,1 55658U 23021AG  24026.27130080  .00000313  00000-0  33993-4 0  9990,2 55658  70.0021 334.4088 0002654 251.9101 108.1769 14.98332550 52949,6950.185,96.107,573.895,570.205,0.0
55658.0,STARLINK-5307,PAYLOAD,2024-01-27 06:32:39,14.98356706,0.0002581,70.0013,331.8817,274.622,85.4644,0.00036374,4.253e-05,0.0,0 STARLINK-5307,1 55658U 23021AG  24027.27267840  .00004253  00000-0  36374-3 0  9998,2 55658  70.0013 331.8817 0002581 274.6220  85.4644 14.98356706 52795,6950.11,96.105,573.769,570.181,0.0
55658.0,STARLINK-5307,PAYLOAD,2024-01-27 22:33:58,14.98364157,0.0003514,69.9999,330.1999,255.1066,104.9704,0.00025939,3.006e-05,0.0,0 STARLINK-5307,1 55658U 23021AG  24027.94026083  .00003006  00000-0  25939-3 0  9994,2 55658  69.9999 330.1999 0003514 255.1066 104.9704 14.98364157 53195,6950.087,96.105,574.395,569.51,0.0
55658.0,STARLINK-5307,PAYLOAD,2024-01-28 04:58:30,14.98360081,0.0004021,69.999,329.5243,272.2981,87.7718,0.00022363,2.578e-05,0.0,0 STARLINK-5307,1 55658U 23021AG  24028.20729986  .00002578  00000-0  22363-3 0  9997,2 55658  69.9990 329.5243 0004021 272.2981  87.7718 14.98360081 53230,6950.1,96.105,574.76,569.17,0.0
55658.0,STARLINK-5307,PAYLOAD,2024-01-28 22:36:01,14.98326601,0.0002704,70.0039,327.6792,222.6525,137.4424,-5.7735e-05,-7.82e-06,0.0,0 STARLINK-5307,1 55658U 23021AG  24028.94168730 -.00000782  00000-0 -57735-4 0  9991,2 55658  70.0039 327.6792 0002704 222.6525 137.4424 14.98326601 53343,6950.203,96.107,573.948,570.189,0.0
55658.0,STARLINK-5307,PAYLOAD,2024-01-29 03:24:26,14.98324899,0.0003116,70.0003,327.1697,259.1849,100.8959,-0.00015516,-1.944e-05,0.0,0 STARLINK-5307,1 55658U 23021AG  24029.14196999 -.00001944  00000-0 -15516-3 0  9993,2 55658  70.0003 327.1697 0003116 259.1849 100.8959 14.98324899 53079,6950.209,96.107,574.239,569.908,0.0
55658.0,STARLINK-5307,PAYLOAD,2024-01-29 19:25:47,14.98318319,0.0002805,70.0007,325.4862,249.1269,110.959,-0.00034974,-4.262e-05,0.0,0 STARLINK-5307,1 55658U 23021AG  24029.80957851 -.00004262  00000-0 -34974-3 0  9993,2 55658  70.0007 325.4862 0002805 249.1269 110.9590 14.98318319 53474,6950.229,96.108,574.044,570.144,0.0
55658.0,STARLINK-5307,PAYLOAD,2024-01-30 03:26:28,14.98308265,0.0003757,69.9986,324.6392,270.0327,90.0402,-0.00039917,-4.85e-05,0.0,0 STARLINK-5307,1 55658U 23021AG  24030.14339002 -.00004850  00000-0 -39917-3 0  9999,2 55658  69.9986 324.6392 0003757 270.0327  90.0402 14.98308265 53223,6950.26,96.108,574.736,569.514,0.0
55658.0,STARLINK-5307,PAYLOAD,2024-01-30 05:02:37,14.98301877,0.0003139,70.001,324.4733,259.0083,101.0723,-0.00040214,-4.884e-05,0.0,0 STARLINK-5307,1 55658U 23021AG  24030.21015560 -.00004884  00000-0 -40214-3 0  9996,2 55658  70.0010 324.4733 0003139 259.0083 101.0723 14.98301877 53536,6950.28,96.109,574.327,569.963,0.0
55658.0,STARLINK-5307,PAYLOAD,2024-01-30 22:40:05,14.98303094,0.0002923,70.0012,322.624,265.7659,94.3166,9.6037e-05,1.052e-05,0.0,0 STARLINK-5307,1 55658U 23021AG  24030.94451315  .00001052  00000-0  96037-4 0  9995,2 55658  70.0012 322.6240 0002923 265.7659  94.3166 14.98303094 53644,6950.276,96.109,574.173,570.11,0.0
55658.0,STARLINK-5307,PAYLOAD,2024-01-31 03:28:29,14.98311706,0.0002718,70.0007,322.1175,262.051,98.0341,0.00018273,2.087e-05,0.0,0 STARLINK-5307,1 55658U 23021AG  24031.14478865  .00002087  00000-0  18273-3 0  9991,2 55658  70.0007 322.1175 0002718 262.0510  98.0341 14.98311706 53373,6950.249,96.108,574.004,570.225,0.0
55658.0,STARLINK-5307,PAYLOAD,2024-01-31 05:04:37,14.98314847,0.0002661,70.0012,321.9509,259.2824,100.8035,0.00020107,2.306e-05,0.0,0 STARLINK-5307,1 55658U 23021AG  24031.21154702  .00002306  00000-0  20107-3 0  9993,2 55658  70.0012 321.9509 0002661 259.2824 100.8035 14.98314847 53685,6950.24,96.108,573.954,570.255,0.0
55658.0,STARLINK-5307,PAYLOAD,2024-01-31 17:53:41,14.98317094,0.0003005,70.0006,320.6026,268.4443,91.6372,0.00044364,5.203e-05,0.0,0 STARLINK-5307,1 55658U 23021AG  24031.74562176  .00005203  00000-0  44364-3 0  9999,2 55658  70.0006 320.6026 0003005 268.4443  91.6372 14.98317094 53464,6950.233,96.108,574.186,570.009,0.0
55658.0,STARLINK-5307,PAYLOAD,2024-02-01 05:06:37,14.98327153,0.0003308,69.9997,319.4254,270.8361,89.2419,0.00049452,5.812e-05,0.0,0 STARLINK-5307,1 55658U 23021AG  24032.21293689  .00005812  00000-0  49452-3 0  9991,2 55658  69.9997 319.4254 0003308 270.8361  89.2419 14.98327153 53531,6950.202,96.107,574.366,569.768,0.0
55658.0,STARLINK-5307,PAYLOAD,2024-02-02 05:08:39,14.98336211,0.0002987,70.0006,316.9033,249.229,110.8549,2.3777e-05,1.91e-06,0.0,0 STARLINK-5307,1 55658U 23021AG  24033.21434184  .00000191  00000-0  23777-4 0  9997,2 55658  70.0006 316.9033 0002987 249.2290 110.8549 14.98336211 53681,6950.174,96.107,574.115,569.963,0.0
55658.0,STARLINK-5307,PAYLOAD,2024-02-02 22:46:07,14.98337827,0.000248,70.0014,315.0521,252.5179,107.5709,-5.7434e-05,-7.78e-06,0.0,0 STARLINK-5307,1 55658U 23021AG  24033.94870019 -.00000778  00000-0 -57434-4 0  9998,2 55658  70.0014 315.0521 0002480 252.5179 107.5709 14.98337827 54094,6950.169,96.106,573.757,570.31,0.0
55658.0,STARLINK-5307,PAYLOAD,2024-02-03 05:10:39,14.98336816,0.0002498,70.0012,314.3766,253.6012,106.4872,-7.7209e-05,-1.014e-05,0.0,0 STARLINK-5307,1 55658U 23021AG  24034.21574018 -.00001014  00000-0 -77209-4 0  9995,2 55658  70.0012 314.3766 0002498 253.6012 106.4872 14.98336816 54133,6950.172,96.107,573.773,570.301,0.0
